COSMOS 2440             
1 33108U 08033A   26061.62213012 -.00000156  00000+0  00000+0 0  9992
2 33108  10.3786  41.9589 0004907 222.3486 199.7459  1.00277468 64723
SL-12 R/B(2)            
1 33111U 08033D   26062.02763017  .00000031  00000+0  00000+0 0  9997
2 33111  10.3597  42.0905 0031290 335.0159 212.8581  1.00272174 64749
INTELSAT 25 (IS-25)     
1 33153U 08034A   26062.12613951 -.00000239  00000+0  00000+0 0  9997
2 33153   2.4341  81.6356 0003823 241.9936 211.1633  1.00270616 64639
ECHOSTAR 11             
1 33207U 08035A   26062.15947694 -.00000072  00000+0  00000+0 0  9990
2 33207   0.7308  85.5110 0002548 255.9175 126.8957  1.00271982 50157
SUPERBIRD-C2            
1 33274U 08038A   26061.97164324 -.00000322  00000+0  00000+0 0  9995
2 33274   2.0873  82.6332 0000973   7.5945 196.3202  1.00270736104660
INMARSAT 4-F3           
1 33278U 08039A   26062.06793036 -.00000153  00000+0  00000+0 0  9991
2 33278   4.2022  31.1855 0002743 318.5277  97.5765  1.00271678 45489
NIMIQ 4                 
1 33373U 08044A   26062.14280992 -.00000236  00000+0  00000+0 0  9996
2 33373   0.0270 102.7452 0002326 252.1131 135.4465  1.00270593 63924
GALAXY 19 (G-19)        
1 33376U 08045A   26062.15392248 -.00000155  00000+0  00000+0 0  9999
2 33376   0.0526 266.4217 0003110  87.2398 125.6496  1.00271869 63845
ASTRA 1M                
1 33436U 08057A   26062.05253104  .00000104  00000+0  00000+0 0  9998
2 33436   0.0320  58.5261 0000633  12.7946 127.5897  1.00273218 44678
FENGYUN 2D DEB          
1 33458U 06053D   26052.49469414 -.00000021  00000+0  00000+0 0  9995
2 33458  11.4549  38.1234 0038219 346.7634  12.0826  1.00249809 64211
EUTELSAT HOTBIRD 13C    
1 33459U 08065A   26062.12058737 -.00000297  00000+0  00000+0 0  9999
2 33459   2.6779  80.4635 0003836 272.5938 160.9164  1.00269375 46289
EXPRESS-AM44            
1 33595U 09007A   26062.15647360 -.00000104  00000+0  00000+0 0  9993
2 33595   3.1909  79.7052 0004310 255.4490 231.0851  1.00271752 51221
NSS-9                   
1 33749U 09008A   26062.03030856  .00000056  00000+0  00000+0 0  9993
2 33749   0.9872  83.7173 0002192 250.1800  20.8642  1.00272427 62457
TELSTAR 11N             
1 34111U 09009A   26061.86596177 -.00000267  00000+0  00000+0 0  9996
2 34111   0.0191 129.6322 0002463 198.4214 106.7670  1.00272907 45174
RADUGA-1 8              
1 34264U 09010A   26061.62212979 -.00000054  00000+0  00000+0 0  9990
2 34264  11.9067  42.7020 0010365  19.2581  41.4616  0.99814803 62115
SL-12 R/B(2)            
1 34265U 09010B   26061.86162840 -.00000293  00000+0  00000+0 0  9993
2 34265  11.9008  42.6413 0003837 293.7236  75.1305  1.00005301 62137
WGS F2 (USA 204)        
1 34713U 09017A   26061.65126447  .00000000  00000+0  00000+0 0  9993
2 34713   0.0276 136.4151 0000634 228.9968  86.9935  1.00269857 44548
